ONEWEB-0159             
1 48062U 21025W   25290.94619653 -.00000239  00000+0 -68861-3 0  9998
2 48062  87.9052   8.3386 0001976  96.0490 264.0864 13.13471644221809
ONEWEB-0164             
1 48063U 21025X   25290.92757695 -.00000155  00000+0 -45850-3 0  9996
2 48063  87.9050   8.3505 0001749 103.0741 257.0584 13.13470453221782
ONEWEB-0167             
1 48064U 21025Y   25290.95549941 -.00000072  00000+0 -23071-3 0  9992
2 48064  87.9040   8.3766 0002499 111.5495 248.5901 13.13471879221774
ONEWEB-0166             
1 48065U 21025Z   25290.29275323  .00000302  00000+0  79086-3 0  9991
2 48065  87.9052   8.4602 0001902  95.1743 264.9604 13.13472209221768
ONEWEB-0151             
1 48066U 21025AA  25290.29446014  .00000264  00000+0  68847-3 0  9999
2 48066  87.9056   8.4855 0001915 104.2046 255.9296 13.13469778221703
ONEWEB-0170             
1 48067U 21025AB  25290.91233160  .00000226  00000+0  58432-3 0  9992
2 48067  87.9053   8.3699 0001744 116.1649 243.9659 13.13471279221740
ONEWEB-0168             
1 48068U 21025AC  25290.66857041  .00000310  00000+0  81476-3 0  9993
2 48068  87.9059   8.4005 0002024 100.8627 259.2730 13.13471443221728
ONEWEB-0173             
1 48069U 21025AD  25290.96482206  .00000184  00000+0  46967-3 0  9999
2 48069  87.9050   8.3491 0002304 102.1719 257.9669 13.13470885222003
